[
    {
        "CCSDS_OMM_VERS": "3.0",
        "COMMENT": "GENERATED VIA SPACE-TRACK.ORG API",
        "CREATION_DATE": "2025-05-04T02:26:54",
        "ORIGINATOR": "18 SPCS",
        "OBJECT_NAME": "BEIDOU 3M11",
        "OBJECT_ID": "2018-067A",
        "CENTER_NAME": "EARTH",
        "REF_FRAME": "TEME",
        "TIME_SYSTEM": "UTC",
        "MEAN_ELEMENT_THEORY": "SGP4",
        "EPOCH": "2025-05-03T17:54:52.938720",
        "MEAN_MOTION": "1.86227874",
        "ECCENTRICITY": "0.00072610",
        "INCLINATION": "54.1933",
        "RA_OF_ASC_NODE": "194.9251",
        "ARG_OF_PERICENTER": "28.1920",
        "MEAN_ANOMALY": "331.9081",
        "EPHEMERIS_TYPE": "0",
        "CLASSIFICATION_TYPE": "U",
        "NORAD_CAT_ID": "43602",
        "ELEMENT_SET_NO": "999",
        "REV_AT_EPOCH": "4549",
        "BSTAR": "0.00000000000000",
        "MEAN_MOTION_DOT": "-0.00000019",
        "MEAN_MOTION_DDOT": "0.0000000000000",
        "SEMIMAJOR_AXIS": "27906.501",
        "PERIOD": "773.246",
        "APOAPSIS": "21548.629",
        "PERIAPSIS": "21508.103",
        "OBJECT_TYPE": "PAYLOAD",
        "RCS_SIZE": "LARGE",
        "COUNTRY_CODE": "PRC",
        "LAUNCH_DATE": "2018-08-24",
        "SITE": "XSC",
        "DECAY_DATE": null,
        "FILE": "4718307",
        "GP_ID": "286799711",
        "TLE_LINE0": "0 BEIDOU 3M11",
        "TLE_LINE1": "1 43602U 18067A   25123.74644605 -.00000019  00000-0  00000-0 0  9997",
        "TLE_LINE2": "2 43602  54.1933 194.9251 0007261  28.1920 331.9081  1.86227874 45493"
    }
]